{
    "links": {
        "self": "http://www.neowsapp.com/rest/v1/neo/3360537?api_key=iIulBulltgU6a56xZRHN4H3l9WmuAYTsLGpBGhQ2"
    },
    "id": "3360537",
    "neo_reference_id": "3360537",
    "name": "(2006 WR29)",
    "designation": "2006 WR29",
    "nasa_jpl_url": "http://ssd.jpl.nasa.gov/sbdb.cgi?sstr=3360537",
    "absolute_magnitude_h": 24.1,
    "estimated_diameter": {
        "kilometers": {
            "estimated_diameter_min": 0.040230458,
            "estimated_diameter_max": 0.0899580388
        },
        "meters": {
            "estimated_diameter_min": 40.2304579834,
            "estimated_diameter_max": 89.9580388169
        },
        "miles": {
            "estimated_diameter_min": 0.0249980399,
            "estimated_diameter_max": 0.0558973165
        },
        "feet": {
            "estimated_diameter_min": 131.9896957704,
            "estimated_diameter_max": 295.1379320721
        }
    },
    "is_potentially_hazardous_asteroid": false,
    "close_approach_data": [
        {
            "close_approach_date": "2006-11-29",
            "close_approach_date_full": "2006-Nov-29 20:49",
            "epoch_date_close_approach": 1164833340000,
            "relative_velocity": {
                "kilometers_per_second": "9.345582748",
                "kilometers_per_hour": "33644.0978927653",
                "miles_per_hour": "20905.1340489796"
            },
            "miss_distance": {
                "astronomical": "0.0933919918",
                "lunar": "36.3294848102",
                "kilometers": "13971243.048337466",
                "miles": "8681327.8717143908"
            },
            "orbiting_body": "Earth"
        }
    ],
    "orbital_data": {
        "orbit_id": "8",
        "orbit_determination_date": "2017-04-06 09:07:32",
        "first_observation_date": "2006-11-22",
        "last_observation_date": "2006-12-09",
        "data_arc_in_days": 17,
        "observations_used": 23,
        "orbit_uncertainty": "9",
        "minimum_orbit_intersection": ".0889609",
        "jupiter_tisserand_invariant": "3.283",
        "epoch_osculation": "2454066.5",
        "eccentricity": ".5540413543347248",
        "semi_major_axis": "2.386978867938121",
        "inclination": "11.97672912304689",
        "ascending_node_longitude": "243.5229272966896",
        "orbital_period": "1347.011452427747",
        "perihelion_distance": "1.064493863177316",
        "perihelion_argument": "197.517848961409",
        "aphelion_distance": "3.709463872698925",
        "perihelion_time": "2454080.080302937563",
        "mean_anomaly": "356.3705512312376",
        "mean_motion": ".2672583067880859",
        "equinox": "J2000",
        "orbit_class": {
            "orbit_class_type": "AMO",
            "orbit_class_description": "Near-Earth asteroid orbits similar to that of 1221 Amor",
            "orbit_class_range": "1.017 AU < q (perihelion) < 1.3 AU"
        }
    },
    "is_sentry_object": false
}